[{"OBJECT_NAME":"STARLINK-2576","OBJECT_ID":"2021-038AZ","EPOCH":"2026-02-05T13:22:59.095488","MEAN_MOTION":15.30201974,"ECCENTRICITY":0.0001704,"INCLINATION":53.1612,"RA_OF_ASC_NODE":121.8684,"ARG_OF_PERICENTER":80.9361,"MEAN_ANOMALY":279.1832,"EPHEMERIS_TYPE":0,"CLASSIFICATION_TYPE":"U","NORAD_CAT_ID":48400,"ELEMENT_SET_NO":999,"REV_AT_EPOCH":26252,"BSTAR":0.00024571,"MEAN_MOTION_DOT":6.925e-5,"MEAN_MOTION_DDOT":0},{"OBJECT_NAME":"STARLINK-2571","OBJECT_ID":"2021-038BA","EPOCH":"2026-02-05T12:38:35.877696","MEAN_MOTION":15.29376929,"ECCENTRICITY":0.0001249,"INCLINATION":53.1579,"RA_OF_ASC_NODE":122.0125,"ARG_OF_PERICENTER":95.8783,"MEAN_ANOMALY":264.2359,"EPHEMERIS_TYPE":0,"CLASSIFICATION_TYPE":"U","NORAD_CAT_ID":48401,"ELEMENT_SET_NO":999,"REV_AT_EPOCH":26251,"BSTAR":0.00064412,"MEAN_MOTION_DOT":0.00018288,"MEAN_MOTION_DDOT":0},{"OBJECT_NAME":"STARLINK-2593","OBJECT_ID":"2021-038BD","EPOCH":"2026-02-05T13:18:28.429344","MEAN_MOTION":15.30198803,"ECCENTRICITY":0.0001701,"INCLINATION":53.1607,"RA_OF_ASC_NODE":121.9577,"ARG_OF_PERICENTER":68.8323,"MEAN_ANOMALY":291.2859,"EPHEMERIS_TYPE":0,"CLASSIFICATION_TYPE":"U","NORAD_CAT_ID":48404,"ELEMENT_SET_NO":999,"REV_AT_EPOCH":26252,"BSTAR":0.00069236,"MEAN_MOTION_DOT":0.00020201,"MEAN_MOTION_DDOT":0},{"OBJECT_NAME":"STARLINK-2570","OBJECT_ID":"2021-038BE","EPOCH":"2026-02-05T12:04:09.186240","MEAN_MOTION":15.30208961,"ECCENTRICITY":0.00014444,"INCLINATION":53.1619,"RA_OF_ASC_NODE":122.3704,"ARG_OF_PERICENTER":82.1925,"MEAN_ANOMALY":277.924,"EPHEMERIS_TYPE":0,"CLASSIFICATION_TYPE":"U","NORAD_CAT_ID":48405,"ELEMENT_SET_NO":999,"REV_AT_EPOCH":26250,"BSTAR":0.00015719728,"MEAN_MOTION_DOT":4.3e-5,"MEAN_MOTION_DDOT":0},{"OBJECT_NAME":"STARLINK-2568","OBJECT_ID":"2021-038BF","EPOCH":"2026-02-05T20:00:01.999008","MEAN_MOTION":15.29225291,"ECCENTRICITY":0.0001468,"INCLINATION":53.1512,"RA_OF_ASC_NODE":123.5063,"ARG_OF_PERICENTER":95.7136,"MEAN_ANOMALY":269.1778,"EPHEMERIS_TYPE":0,"CLASSIFICATION_TYPE":"U","NORAD_CAT_ID":48406,"ELEMENT_SET_NO":999,"REV_AT_EPOCH":572,"BSTAR":0.0033422,"MEAN_MOTION_DOT":0.00096963,"MEAN_MOTION_DDOT":0},{"OBJECT_NAME":"STARLINK-2592","OBJECT_ID":"2021-038BH","EPOCH":"2026-02-05T15:27:29.064096","MEAN_MOTION":15.30221367,"ECCENTRICITY":0.0001427,"INCLINATION":53.1594,"RA_OF_ASC_NODE":121.931,"ARG_OF_PERICENTER":98.7618,"MEAN_ANOMALY":261.3544,"EPHEMERIS_TYPE":0,"CLASSIFICATION_TYPE":"U","NORAD_CAT_ID":48408,"ELEMENT_SET_NO":999,"REV_AT_EPOCH":26252,"BSTAR":0.00081596,"MEAN_MOTION_DOT":0.00023901,"MEAN_MOTION_DDOT":0},{"OBJECT_NAME":"STARLINK-2563","OBJECT_ID":"2021-038BK","EPOCH":"2026-02-05T12:02:36.569760","MEAN_MOTION":15.06410499,"ECCENTRICITY":0.00018149,"INCLINATION":53.054,"RA_OF_ASC_NODE":81.1175,"ARG_OF_PERICENTER":98.7456,"MEAN_ANOMALY":261.3739,"EPHEMERIS_TYPE":0,"CLASSIFICATION_TYPE":"U","NORAD_CAT_ID":48410,"ELEMENT_SET_NO":999,"REV_AT_EPOCH":26309,"BSTAR":-5.1256921e-5,"MEAN_MOTION_DOT":-1.045e-5,"MEAN_MOTION_DDOT":0},{"OBJECT_NAME":"STARLINK-2505","OBJECT_ID":"2021-038BL","EPOCH":"2026-02-05T09:16:04.775232","MEAN_MOTION":15.06408638,"ECCENTRICITY":0.00013465,"INCLINATION":53.0531,"RA_OF_ASC_NODE":76.6371,"ARG_OF_PERICENTER":96.3006,"MEAN_ANOMALY":263.8137,"EPHEMERIS_TYPE":0,"CLASSIFICATION_TYPE":"U","NORAD_CAT_ID":48411,"ELEMENT_SET_NO":999,"REV_AT_EPOCH":26314,"BSTAR":0.00025720197,"MEAN_MOTION_DOT":3.552e-5,"MEAN_MOTION_DDOT":0},{"OBJECT_NAME":"STARLINK-2581","OBJECT_ID":"2021-038BM","EPOCH":"2026-02-05T03:20:33.895680","MEAN_MOTION":15.06383187,"ECCENTRICITY":0.00011767,"INCLINATION":53.0531,"RA_OF_ASC_NODE":78.179,"ARG_OF_PERICENTER":97.8593,"MEAN_ANOMALY":262.2529,"EPHEMERIS_TYPE":0,"CLASSIFICATION_TYPE":"U","NORAD_CAT_ID":48412,"ELEMENT_SET_NO":999,"REV_AT_EPOCH":26310,"BSTAR":-0.00012069039,"MEAN_MOTION_DOT":-2.078e-5,"MEAN_MOTION_DDOT":0},{"OBJECT_NAME":"STARLINK-2461","OBJECT_ID":"2021-040A","EPOCH":"2026-02-05T18:48:49.508640","MEAN_MOTION":15.31031844,"ECCENTRICITY":0.0001053,"INCLINATION":53.1613,"RA_OF_ASC_NODE":326.9652,"ARG_OF_PERICENTER":60.9436,"MEAN_ANOMALY":299.1671,"EPHEMERIS_TYPE":0,"CLASSIFICATION_TYPE":"U","NORAD_CAT_ID":48428,"ELEMENT_SET_NO":999,"REV_AT_EPOCH":26179,"BSTAR":0.00052247,"MEAN_MOTION_DOT":0.00015549,"MEAN_MOTION_DDOT":0},{"OBJECT_NAME":"STARLINK-2700","OBJECT_ID":"2021-040D","EPOCH":"2026-02-05T16:37:55.653600","MEAN_MOTION":15.06402365,"ECCENTRICITY":0.0001617,"INCLINATION":53.055,"RA_OF_ASC_NODE":295.2569,"ARG_OF_PERICENTER":86.7216,"MEAN_ANOMALY":273.3958,"EPHEMERIS_TYPE":0,"CLASSIFICATION_TYPE":"U","NORAD_CAT_ID":48431,"ELEMENT_SET_NO":999,"REV_AT_EPOCH":26222,"BSTAR":0.00024865,"MEAN_MOTION_DOT":3.424e-5,"MEAN_MOTION_DDOT":0},{"OBJECT_NAME":"STARLINK-2680","OBJECT_ID":"2021-040E","EPOCH":"2026-02-04T22:39:53.730432","MEAN_MOTION":15.06387387,"ECCENTRICITY":0.00016738,"INCLINATION":53.0543,"RA_OF_ASC_NODE":294.0159,"ARG_OF_PERICENTER":99.4565,"MEAN_ANOMALY":260.6613,"EPHEMERIS_TYPE":0,"CLASSIFICATION_TYPE":"U","NORAD_CAT_ID":48432,"ELEMENT_SET_NO":999,"REV_AT_EPOCH":26217,"BSTAR":-9.6739247e-5,"MEAN_MOTION_DOT":-1.722e-5,"MEAN_MOTION_DDOT":0},{"OBJECT_NAME":"STARLINK-2699","OBJECT_ID":"2021-040F","EPOCH":"2026-02-05T02:08:51.972288","MEAN_MOTION":15.06386084,"ECCENTRICITY":0.00014478,"INCLINATION":53.054,"RA_OF_ASC_NODE":298.2445,"ARG_OF_PERICENTER":116.3325,"MEAN_ANOMALY":243.7813,"EPHEMERIS_TYPE":0,"CLASSIFICATION_TYPE":"U","NORAD_CAT_ID":48433,"ELEMENT_SET_NO":999,"REV_AT_EPOCH":26212,"BSTAR":-5.9177654e-5,"MEAN_MOTION_DOT":-1.162e-5,"MEAN_MOTION_DDOT":0},{"OBJECT_NAME":"STARLINK-2692","OBJECT_ID":"2021-040G","EPOCH":"2026-02-05T20:00:01.999008","MEAN_MOTION":15.13188297,"ECCENTRICITY":0.0001498,"INCLINATION":53.0824,"RA_OF_ASC_NODE":300.0523,"ARG_OF_PERICENTER":98.0296,"MEAN_ANOMALY":218.0007,"EPHEMERIS_TYPE":0,"CLASSIFICATION_TYPE":"U","NORAD_CAT_ID":48434,"ELEMENT_SET_NO":999,"REV_AT_EPOCH":582,"BSTAR":0.047047,"MEAN_MOTION_DOT":0.009136,"MEAN_MOTION_DDOT":0},{"OBJECT_NAME":"STARLINK-2633","OBJECT_ID":"2021-040H","EPOCH":"2026-02-05T18:57:57.320064","MEAN_MOTION":15.06363858,"ECCENTRICITY":0.0001545,"INCLINATION":53.0535,"RA_OF_ASC_NODE":309.8315,"ARG_OF_PERICENTER":92.5433,"MEAN_ANOMALY":267.5733,"EPHEMERIS_TYPE":0,"CLASSIFICATION_TYPE":"U","NORAD_CAT_ID":48435,"ELEMENT_SET_NO":999,"REV_AT_EPOCH":26202,"BSTAR":-0.00025422,"MEAN_MOTION_DOT":-4.062e-5,"MEAN_MOTION_DDOT":0},{"OBJECT_NAME":"STARLINK-2639","OBJECT_ID":"2021-040J","EPOCH":"2026-02-05T18:42:40.406976","MEAN_MOTION":15.06414376,"ECCENTRICITY":0.0002834,"INCLINATION":53.0566,"RA_OF_ASC_NODE":324.867,"ARG_OF_PERICENTER":115.0418,"MEAN_ANOMALY":245.0865,"EPHEMERIS_TYPE":0,"CLASSIFICATION_TYPE":"U","NORAD_CAT_ID":48436,"ELEMENT_SET_NO":999,"REV_AT_EPOCH":26181,"BSTAR":0.00096413,"MEAN_MOTION_DOT":0.00014114,"MEAN_MOTION_DDOT":0},{"OBJECT_NAME":"STARLINK-2642","OBJECT_ID":"2021-040K","EPOCH":"2026-02-05T19:55:39.482976","MEAN_MOTION":15.06412216,"ECCENTRICITY":0.0001569,"INCLINATION":53.0584,"RA_OF_ASC_NODE":334.6422,"ARG_OF_PERICENTER":76.4621,"MEAN_ANOMALY":283.6543,"EPHEMERIS_TYPE":0,"CLASSIFICATION_TYPE":"U","NORAD_CAT_ID":48437,"ELEMENT_SET_NO":999,"REV_AT_EPOCH":26168,"BSTAR":7.9202e-5,"MEAN_MOTION_DOT":8.99e-6,"MEAN_MOTION_DDOT":0},{"OBJECT_NAME":"STARLINK-2640","OBJECT_ID":"2021-040L","EPOCH":"2026-02-05T19:14:34.638720","MEAN_MOTION":15.06406782,"ECCENTRICITY":0.0001205,"INCLINATION":53.0597,"RA_OF_ASC_NODE":325.0321,"ARG_OF_PERICENTER":135.2877,"MEAN_ANOMALY":224.8209,"EPHEMERIS_TYPE":0,"CLASSIFICATION_TYPE":"U","NORAD_CAT_ID":48438,"ELEMENT_SET_NO":999,"REV_AT_EPOCH":26181,"BSTAR":-2.3469e-5,"MEAN_MOTION_DOT":-6.31e-6,"MEAN_MOTION_DDOT":0},{"OBJECT_NAME":"STARLINK-2583","OBJECT_ID":"2021-040M","EPOCH":"2026-02-05T12:09:55.230336","MEAN_MOTION":15.06401213,"ECCENTRICITY":0.00016725,"INCLINATION":53.057,"RA_OF_ASC_NODE":326.0946,"ARG_OF_PERICENTER":96.1026,"MEAN_ANOMALY":264.0154,"EPHEMERIS_TYPE":0,"CLASSIFICATION_TYPE":"U","NORAD_CAT_ID":48439,"ELEMENT_SET_NO":999,"REV_AT_EPOCH":26177,"BSTAR":0.0005364525,"MEAN_MOTION_DOT":7.718e-5,"MEAN_MOTION_DDOT":0},{"OBJECT_NAME":"STARLINK-2682","OBJECT_ID":"2021-040N","EPOCH":"2026-02-05T12:04:36.682176","MEAN_MOTION":15.06395898,"ECCENTRICITY":0.00014904,"INCLINATION":53.0553,"RA_OF_ASC_NODE":326.1103,"ARG_OF_PERICENTER":95.5167,"MEAN_ANOMALY":264.5992,"EPHEMERIS_TYPE":0,"CLASSIFICATION_TYPE":"U","NORAD_CAT_ID":48440,"ELEMENT_SET_NO":999,"REV_AT_EPOCH":26177,"BSTAR":0.00054594576,"MEAN_MOTION_DOT":7.859e-5,"MEAN_MOTION_DDOT":0},{"OBJECT_NAME":"STARLINK-2702","OBJECT_ID":"2021-040P","EPOCH":"2026-02-05T18:21:27.297792","MEAN_MOTION":15.06406811,"ECCENTRICITY":0.0001505,"INCLINATION":53.0556,"RA_OF_ASC_NODE":324.9305,"ARG_OF_PERICENTER":72.4111,"MEAN_ANOMALY":287.7042,"EPHEMERIS_TYPE":0,"CLASSIFICATION_TYPE":"U","NORAD_CAT_ID":48441,"ELEMENT_SET_NO":999,"REV_AT_EPOCH":26181,"BSTAR":3.696e-5,"MEAN_MOTION_DOT":2.69e-6,"MEAN_MOTION_DDOT":0},{"OBJECT_NAME":"STARLINK-2644","OBJECT_ID":"2021-040Q","EPOCH":"2026-02-05T00:45:12.686112","MEAN_MOTION":15.06329325,"ECCENTRICITY":0.0002171,"INCLINATION":53.0552,"RA_OF_ASC_NODE":328.2282,"ARG_OF_PERICENTER":74.3667,"MEAN_ANOMALY":285.7562,"EPHEMERIS_TYPE":0,"CLASSIFICATION_TYPE":"U","NORAD_CAT_ID":48442,"ELEMENT_SET_NO":999,"REV_AT_EPOCH":26170,"BSTAR":-0.0019912503,"MEAN_MOTION_DOT":-0.00029763,"MEAN_MOTION_DDOT":0},{"OBJECT_NAME":"STARLINK-2663","OBJECT_ID":"2021-040R","EPOCH":"2026-02-05T18:10:50.556576","MEAN_MOTION":15.06410084,"ECCENTRICITY":0.0002755,"INCLINATION":53.0558,"RA_OF_ASC_NODE":324.9709,"ARG_OF_PERICENTER":76.7175,"MEAN_ANOMALY":283.4121,"EPHEMERIS_TYPE":0,"CLASSIFICATION_TYPE":"U","NORAD_CAT_ID":48443,"ELEMENT_SET_NO":999,"REV_AT_EPOCH":26181,"BSTAR":1.2194e-5,"MEAN_MOTION_DOT":-1.0e-6,"MEAN_MOTION_DDOT":0}]
